{
  "type": "FeatureCollection",
  "features": [
    {
      "type": "Feature",
      "properties": {
        "norad_id": 37108,
        "name": "COSMOS 2251 DEB",
        "group": "cosmos-2251-debris",
        "lat": -53.24061618448382,
        "lon": -92.94987730102415,
        "alt_km": 768.2651804781608,
        "timestamp": "2025-12-21T09:37:23.052419+00:00",
        "meta_object_name": "COSMOS 2251 DEB",
        "meta_object_id": "1993-036BGE",
        "meta_epoch": "2025-12-19T14:53:35.707488",
        "meta_mean_motion": 14.41350949,
        "meta_eccentricity": 0.00906536,
        "meta_inclination": 74.0446,
        "meta_ra_of_asc_node": 67.8256,
        "meta_arg_of_pericenter": 142.8208,
        "meta_mean_anomaly": 217.9273,
        "meta_ephemeris_type": 0,
        "meta_classification_type": "U",
        "meta_norad_cat_id": 37108,
        "meta_element_set_no": 999,
        "meta_rev_at_epoch": 85606,
        "meta_bstar": 0.00071158692,
        "meta_mean_motion_dot": 2.393e-05,
        "meta_mean_motion_ddot": 0,
        "tle_line1": "1 37108U 93036BGE 25353.62055217  .00002393  00000+0  71159-3 0  9998",
        "tle_line2": "2 37108  74.0446  67.8256 0090653 142.8208 217.9273 14.41350949856064"
      },
      "geometry": {
        "type": "Point",
        "coordinates": [
          -92.94987730102415,
          -53.24061618448382
        ]
      }
    },
    {
      "type": "Feature",
      "properties": {
        "norad_id": 37126,
        "name": "COSMOS 2251 DEB",
        "group": "cosmos-2251-debris",
        "lat": 40.941774662917574,
        "lon": -7.976840659755207,
        "alt_km": 732.8279041097821,
        "timestamp": "2025-12-21T09:37:23.052430+00:00",
        "meta_object_name": "COSMOS 2251 DEB",
        "meta_object_id": "1993-036BGY",
        "meta_epoch": "2025-12-20T05:42:55.988064",
        "meta_mean_motion": 14.73095826,
        "meta_eccentricity": 0.012286,
        "meta_inclination": 73.953,
        "meta_ra_of_asc_node": 339.8407,
        "meta_arg_of_pericenter": 216.3855,
        "meta_mean_anomaly": 142.8921,
        "meta_ephemeris_type": 0,
        "meta_classification_type": "U",
        "meta_norad_cat_id": 37126,
        "meta_element_set_no": 999,
        "meta_rev_at_epoch": 8209,
        "meta_bstar": 0.00014955,
        "meta_mean_motion_dot": 1.046e-05,
        "meta_mean_motion_ddot": 0,
        "tle_line1": "1 37126U 93036BGY 25354.23814801  .00001046  00000+0  14955-3 0  9993",
        "tle_line2": "2 37126  73.9530 339.8407 0122860 216.3855 142.8921 14.73095826 82092"
      },
      "geometry": {
        "type": "Point",
        "coordinates": [
          -7.976840659755207,
          40.941774662917574
        ]
      }
    },
    {
      "type": "Feature",
      "properties": {
        "norad_id": 37132,
        "name": "COSMOS 2251 DEB",
        "group": "cosmos-2251-debris",
        "lat": -61.310201050394944,
        "lon": 68.62380817307535,
        "alt_km": 658.7048344383556,
        "timestamp": "2025-12-21T09:37:23.052440+00:00",
        "meta_object_name": "COSMOS 2251 DEB",
        "meta_object_id": "1993-036BHE",
        "meta_epoch": "2025-12-20T21:08:27.663072",
        "meta_mean_motion": 14.77927628,
        "meta_eccentricity": 0.0040179,
        "meta_inclination": 74.0011,
        "meta_ra_of_asc_node": 218.0264,
        "meta_arg_of_pericenter": 11.8256,
        "meta_mean_anomaly": 348.3853,
        "meta_ephemeris_type": 0,
        "meta_classification_type": "U",
        "meta_norad_cat_id": 37132,
        "meta_element_set_no": 999,
        "meta_rev_at_epoch": 62536,
        "meta_bstar": 0.00051189,
        "meta_mean_motion_dot": 3.704e-05,
        "meta_mean_motion_ddot": 0,
        "tle_line1": "1 37132U 93036BHE 25354.88087573  .00003704  00000+0  51189-3 0  9992",
        "tle_line2": "2 37132  74.0011 218.0264 0040179  11.8256 348.3853 14.77927628625367"
      },
      "geometry": {
        "type": "Point",
        "coordinates": [
          68.62380817307535,
          -61.310201050394944
        ]
      }
    },
    {
      "type": "Feature",
      "properties": {
        "norad_id": 37270,
        "name": "COSMOS 2251 DEB",
        "group": "cosmos-2251-debris",
        "lat": -33.30524830661135,
        "lon": -49.14982075206131,
        "alt_km": 748.2622424362226,
        "timestamp": "2025-12-21T09:37:23.052450+00:00",
        "meta_object_name": "COSMOS 2251 DEB",
        "meta_object_id": "1993-036BHJ",
        "meta_epoch": "2025-12-12T22:45:06.098400",
        "meta_mean_motion": 13.59808663,
        "meta_eccentricity": 0.03985351,
        "meta_inclination": 73.9378,
        "meta_ra_of_asc_node": 335.5481,
        "meta_arg_of_pericenter": 347.3958,
        "meta_mean_anomaly": 11.7404,
        "meta_ephemeris_type": 0,
        "meta_classification_type": "U",
        "meta_norad_cat_id": 37270,
        "meta_element_set_no": 999,
        "meta_rev_at_epoch": 77072,
        "meta_bstar": 0.0064936549,
        "meta_mean_motion_dot": 8.148e-05,
        "meta_mean_motion_ddot": 0,
        "tle_line1": "1 37270U 93036BHJ 25346.94798725  .00008148  00000+0  64937-2 0  9992",
        "tle_line2": "2 37270  73.9378 335.5481 0398535 347.3958  11.7404 13.59808663770728"
      },
      "geometry": {
        "type": "Point",
        "coordinates": [
          -49.14982075206131,
          -33.30524830661135
        ]
      }
    },
    {
      "type": "Feature",
      "properties": {
        "norad_id": 37278,
        "name": "COSMOS 2251 DEB",
        "group": "cosmos-2251-debris",
        "lat": -72.27053133757121,
        "lon": -91.83878725749149,
        "alt_km": 960.0896399420235,
        "timestamp": "2025-12-21T09:37:23.052460+00:00",
        "meta_object_name": "COSMOS 2251 DEB",
        "meta_object_id": "1993-036BHS",
        "meta_epoch": "2025-12-04T09:26:36.152736",
        "meta_mean_motion": 14.15029915,
        "meta_eccentricity": 0.029998,
        "meta_inclination": 73.7864,
        "meta_ra_of_asc_node": 4.3592,
        "meta_arg_of_pericenter": 188.2556,
        "meta_mean_anomaly": 234.4903,
        "meta_ephemeris_type": 0,
        "meta_classification_type": "U",
        "meta_norad_cat_id": 37278,
        "meta_element_set_no": 999,
        "meta_rev_at_epoch": 63711,
        "meta_bstar": 0.0023061,
        "meta_mean_motion_dot": 6.884e-05,
        "meta_mean_motion_ddot": 0,
        "tle_line1": "1 37278U 93036BHS 25338.39347399  .00006884  00000+0  23061-2 0  9995",
        "tle_line2": "2 37278  73.7864   4.3592 0299980 188.2556 234.4903 14.15029915637119"
      },
      "geometry": {
        "type": "Point",
        "coordinates": [
          -91.83878725749149,
          -72.27053133757121
        ]
      }
    },
    {
      "type": "Feature",
      "properties": {
        "norad_id": 37280,
        "name": "COSMOS 2251 DEB",
        "group": "cosmos-2251-debris",
        "lat": -9.137187169167266,
        "lon": 38.94633569558561,
        "alt_km": 925.0705174259829,
        "timestamp": "2025-12-21T09:37:23.052470+00:00",
        "meta_object_name": "COSMOS 2251 DEB",
        "meta_object_id": "1993-036BHU",
        "meta_epoch": "2025-12-20T20:08:10.131360",
        "meta_mean_motion": 14.19354674,
        "meta_eccentricity": 0.0130313,
        "meta_inclination": 74.0316,
        "meta_ra_of_asc_node": 42.5901,
        "meta_arg_of_pericenter": 169.4803,
        "meta_mean_anomaly": 190.9117,
        "meta_ephemeris_type": 0,
        "meta_classification_type": "U",
        "meta_norad_cat_id": 37280,
        "meta_element_set_no": 999,
        "meta_rev_at_epoch": 57438,
        "meta_bstar": 0.00071774,
        "meta_mean_motion_dot": 1.617e-05,
        "meta_mean_motion_ddot": 0,
        "tle_line1": "1 37280U 93036BHU 25354.83900615  .00001617  00000+0  71774-3 0  9995",
        "tle_line2": "2 37280  74.0316  42.5901 0130313 169.4803 190.9117 14.19354674574385"
      },
      "geometry": {
        "type": "Point",
        "coordinates": [
          38.94633569558561,
          -9.137187169167266
        ]
      }
    },
    {
      "type": "Feature",
      "properties": {
        "norad_id": 37284,
        "name": "COSMOS 2251 DEB",
        "group": "cosmos-2251-debris",
        "lat": 34.87423431921532,
        "lon": -50.12905430685653,
        "alt_km": 944.8520469633313,
        "timestamp": "2025-12-21T09:37:23.052480+00:00",
        "meta_object_name": "COSMOS 2251 DEB",
        "meta_object_id": "1993-036BHY",
        "meta_epoch": "2025-12-10T18:04:20.469216",
        "meta_mean_motion": 14.12686618,
        "meta_eccentricity": 0.01605026,
        "meta_inclination": 74.0123,
        "meta_ra_of_asc_node": 160.2425,
        "meta_arg_of_pericenter": 312.4867,
        "meta_mean_anomaly": 59.8736,
        "meta_ephemeris_type": 0,
        "meta_classification_type": "U",
        "meta_norad_cat_id": 37284,
        "meta_element_set_no": 999,
        "meta_rev_at_epoch": 59147,
        "meta_bstar": 0.001592138,
        "meta_mean_motion_dot": 3.31e-05,
        "meta_mean_motion_ddot": 0,
        "tle_line1": "1 37284U 93036BHY 25344.75301469  .00003310  00000+0  15921-2 0  9994",
        "tle_line2": "2 37284  74.0123 160.2425 0160502 312.4867  59.8736 14.12686618591475"
      },
      "geometry": {
        "type": "Point",
        "coordinates": [
          -50.12905430685653,
          34.87423431921532
        ]
      }
    }
  ]
}